[{"OBJECT_NAME":"STARLINK-4563","OBJECT_ID":"2022-101AL","EPOCH":"2026-03-09T09:11:33.607104","MEAN_MOTION":15.08842859,"ECCENTRICITY":0.00013959,"INCLINATION":53.2178,"RA_OF_ASC_NODE":65.4938,"ARG_OF_PERICENTER":84.028,"MEAN_ANOMALY":276.0872,"EPHEMERIS_TYPE":0,"CLASSIFICATION_TYPE":"U","NORAD_CAT_ID":53561,"ELEMENT_SET_NO":999,"REV_AT_EPOCH":19626,"BSTAR":1.1285832e-5,"MEAN_MOTION_DOT":-1.08e-6,"MEAN_MOTION_DDOT":0},{"OBJECT_NAME":"DISKSAT B","OBJECT_ID":"2025-305B","EPOCH":"2026-03-09T19:33:34.074144","MEAN_MOTION":15.07484556,"ECCENTRICITY":0.00037827,"INCLINATION":45.0018,"RA_OF_ASC_NODE":250.2098,"ARG_OF_PERICENTER":311.4052,"MEAN_ANOMALY":48.6498,"EPHEMERIS_TYPE":0,"CLASSIFICATION_TYPE":"U","NORAD_CAT_ID":67220,"ELEMENT_SET_NO":999,"REV_AT_EPOCH":1231,"BSTAR":0.00082400752,"MEAN_MOTION_DOT":0.00012481,"MEAN_MOTION_DDOT":0}]
