STARLINK-4563           
1 53561U 22101AL  26068.38302786 -.00000108  00000+0  11286-4 0  9996
2 53561  53.2178  65.4938 0001395  84.0280 276.0872 15.08842859196269
DISKSAT B               
1 67220U 25305B   26068.81497770  .00012481  00000+0  82401-3 0  9990
2 67220  45.0018 250.2098 0003783 311.4052  48.6498 15.07484556 12311
